NORAD_CAT_ID,OBJECT_NAME,OBJECT_TYPE,EPOCH,MEAN_MOTION,ECCENTRICITY,INCLINATION,RA_OF_ASC_NODE,ARG_OF_PERICENTER,MEAN_ANOMALY,BSTAR,MEAN_MOTION_DOT,MEAN_MOTION_DDOT,TLE_LINE0,TLE_LINE1,TLE_LINE2,SEMIMAJOR_AXIS,PERIOD,APOGEE,PERIGEE,DECAYED
52127.0,STARLINK-3715,PAYLOAD,2024-04-14 19:42:50,15.08843286,0.0001486,53.2187,304.0103,87.824,272.2923,0.00017093,2.434e-05,0.0,0 STARLINK-3715,1 52127U 22029AR  24105.82141781  .00002434  00000-0  17093-3 0  9992,2 52127  53.2187 304.0103 0001486  87.8240 272.2923 15.08843286116172,6917.87,95.437,540.763,538.707,0.0
52127.0,STARLINK-3715,PAYLOAD,2024-04-14 22:53:36,15.08844337,0.000148,53.2187,303.4157,89.1945,270.9217,0.00018032,2.583e-05,0.0,0 STARLINK-3715,1 52127U 22029AR  24105.95389733  .00002583  00000-0  18032-3 0  9996,2 52127  53.2187 303.4157 0001480  89.1945 270.9217 15.08844337116196,6917.867,95.437,540.756,538.708,0.0
52127.0,STARLINK-3715,PAYLOAD,2024-04-15 13:12:05,15.08842866,0.0001474,53.2183,300.7391,90.98,269.1361,0.00015915,2.246e-05,0.0,0 STARLINK-3715,1 52127U 22029AR  24106.55005806  .00002246  00000-0  15915-3 0  9992,2 52127  53.2183 300.7391 0001474  90.9800 269.1361 15.08842866116280,6917.872,95.437,540.756,538.717,0.0
52127.0,STARLINK-3715,PAYLOAD,2024-04-16 19:24:24,15.0884199,0.0001283,53.2172,295.0907,101.6462,258.4674,5.7306e-05,6.24e-06,0.0,0 STARLINK-3715,1 52127U 22029AR  24107.80861690  .00000624  00000-0  57306-4 0  9991,2 52127  53.2172 295.0907 0001283 101.6462 258.4674 15.08841990116475,6917.874,95.437,540.627,538.852,0.0
52127.0,STARLINK-3715,PAYLOAD,2024-04-17 11:18:15,15.08840485,0.0001145,53.217,292.1237,94.1226,265.9897,9.3483e-05,1.2e-05,0.0,0 STARLINK-3715,1 52127U 22029AR  24108.47101814  .00001200  00000-0  93483-4 0  9997,2 52127  53.2170 292.1237 0001145  94.1226 265.9897 15.08840485116577,6917.879,95.438,540.536,538.952,0.0
52127.0,STARLINK-3715,PAYLOAD,2024-04-17 17:39:48,15.08842864,0.0001208,53.2171,290.9355,87.7232,272.3898,0.0001014,1.326e-05,0.0,0 STARLINK-3715,1 52127U 22029AR  24108.73597655  .00001326  00000-0  10140-3 0  9995,2 52127  53.2171 290.9355 0001208  87.7232 272.3898 15.08842864116611,6917.872,95.437,540.572,538.901,0.0
52127.0,STARLINK-3715,PAYLOAD,2024-04-18 11:09:02,15.08840481,0.0001227,53.2171,287.6651,87.3544,272.7588,9.1962e-05,1.176e-05,0.0,0 STARLINK-3715,1 52127U 22029AR  24109.46461735  .00001176  00000-0  91962-4 0  9990,2 52127  53.2171 287.6651 0001227  87.3544 272.7588 15.08840481116721,6917.879,95.438,540.593,538.895,0.0
52127.0,STARLINK-3715,PAYLOAD,2024-04-18 19:05:58,15.08839524,0.0001318,53.2173,286.1729,73.4906,286.6231,9.9682e-05,1.299e-05,0.0,0 STARLINK-3715,1 52127U 22029AR  24109.79581975  .00001299  00000-0  99682-4 0  9998,2 52127  53.2173 286.1729 0001318  73.4906 286.6231 15.08839524116772,6917.882,95.438,540.659,538.835,0.0
52127.0,STARLINK-3715,PAYLOAD,2024-04-19 20:32:08,15.08848285,0.000147,53.2169,281.417,73.9214,286.194,0.00013727,1.898e-05,0.0,0 STARLINK-3715,1 52127U 22029AR  24110.85565725  .00001898  00000-0  13727-3 0  9992,2 52127  53.2169 281.4170 0001470  73.9214 286.1940 15.08848285116935,6917.855,95.437,540.737,538.703,0.0
52127.0,STARLINK-3715,PAYLOAD,2024-04-20 10:50:37,15.08838608,0.0001277,53.2175,278.7392,73.6622,286.4511,6.4143e-05,7.33e-06,0.0,0 STARLINK-3715,1 52127U 22029AR  24111.45182286  .00000733  00000-0  64143-4 0  9992,2 52127  53.2175 278.7392 0001277  73.6622 286.4511 15.08838608117028,6917.885,95.438,540.633,538.866,0.0
52127.0,STARLINK-3715,PAYLOAD,2024-04-20 20:22:55,15.08855194,0.0001316,53.2175,276.9537,75.164,284.9498,0.00028004,4.174e-05,0.0,0 STARLINK-3715,1 52127U 22029AR  24111.84925438  .00004174  00000-0  28004-3 0  9997,2 52127  53.2175 276.9537 0001316  75.1640 284.9498 15.08855194117082,6917.834,95.437,540.609,538.789,0.0
52127.0,STARLINK-3715,PAYLOAD,2024-04-21 10:41:24,15.0883543,9.28e-05,53.2174,274.2781,94.6972,265.4126,-0.00016104,-2.849e-05,0.0,0 STARLINK-3715,1 52127U 22029AR  24112.44542432 -.00002849  00000-0 -16104-3 0  9990,2 52127  53.2174 274.2781 0000928  94.6972 265.4126 15.08835430117178,6917.894,95.438,540.401,539.117,0.0
52127.0,STARLINK-3715,PAYLOAD,2024-04-21 17:02:56,15.0884299,0.0001542,53.2169,273.0905,92.2233,267.8936,-1.3352e-05,-5.01e-06,0.0,0 STARLINK-3715,1 52127U 22029AR  24112.71038169 -.00000501  00000-0 -13352-4 0  9993,2 52127  53.2169 273.0905 0001542  92.2233 267.8936 15.08842990117213,6917.871,95.437,540.803,538.67,0.0
52127.0,STARLINK-3715,PAYLOAD,2024-04-22 10:32:11,15.08846709,0.0001809,53.2179,269.8205,91.6308,268.4891,9.0321e-05,1.15e-05,0.0,0 STARLINK-3715,1 52127U 22029AR  24113.43902199  .00001150  00000-0  90321-4 0  9996,2 52127  53.2179 269.8205 0001809  91.6308 268.4891 15.08846709117323,6917.86,95.437,540.976,538.473,0.0
52127.0,STARLINK-3715,PAYLOAD,2024-04-22 16:53:43,15.08848705,0.0001634,53.2183,268.6312,84.2043,275.9135,0.0001803,2.583e-05,0.0,0 STARLINK-3715,1 52127U 22029AR  24113.70398075  .00002583  00000-0  18030-3 0  9995,2 52127  53.2183 268.6312 0001634  84.2043 275.9135 15.08848705117360,6917.854,95.437,540.849,538.588,0.0
52127.0,STARLINK-3715,PAYLOAD,2024-04-23 13:33:45,15.08834145,0.0001405,53.2172,264.7641,93.7317,266.3835,3.1135e-05,2.08e-06,0.0,0 STARLINK-3715,1 52127U 22029AR  24114.56510998  .00000208  00000-0  31135-4 0  9994,2 52127  53.2172 264.7641 0001405  93.7317 266.3835 15.08834145117493,6917.898,95.438,540.735,538.791,0.0
52127.0,STARLINK-3715,PAYLOAD,2024-04-23 16:44:31,15.08837274,0.0001544,53.2177,264.1694,92.2359,267.881,7.3154e-05,8.76e-06,0.0,0 STARLINK-3715,1 52127U 22029AR  24114.69758920  .00000876  00000-0  73154-4 0  9995,2 52127  53.2177 264.1694 0001544  92.2359 267.8810 15.08837274117512,6917.889,95.438,540.822,538.686,0.0
52127.0,STARLINK-3715,PAYLOAD,2024-04-24 10:13:46,15.08832595,0.0001544,53.2184,260.8969,86.7662,273.3507,-5.1781e-05,-1.112e-05,0.0,0 STARLINK-3715,1 52127U 22029AR  24115.42623559 -.00001112  00000-0 -51781-4 0  9994,2 52127  53.2184 260.8969 0001544  86.7662 273.3507 15.08832595117621,6917.903,95.438,540.836,538.7,0.0
52127.0,STARLINK-3715,PAYLOAD,2024-04-24 13:24:32,15.08847271,0.0001313,53.2173,260.3,101.5887,258.5253,0.00012316,1.673e-05,0.0,0 STARLINK-3715,1 52127U 22029AR  24115.55870626  .00001673  00000-0  12316-3 0  9997,2 52127  53.2173 260.3000 0001313 101.5887 258.5253 15.08847271117641,6917.858,95.437,540.631,538.815,0.0
52127.0,STARLINK-3715,PAYLOAD,2024-04-24 14:59:55,15.08848287,0.0001348,53.2173,260.0024,103.3108,256.8034,0.00013722,1.897e-05,0.0,0 STARLINK-3715,1 52127U 22029AR  24115.62494566  .00001897  00000-0  13722-3 0  9990,2 52127  53.2173 260.0024 0001348 103.3108 256.8034 15.08848287117655,6917.855,95.437,540.653,538.788,0.0
52127.0,STARLINK-3715,PAYLOAD,2024-04-25 13:15:20,15.0883627,0.0001414,53.2177,255.8508,111.4715,248.6428,4.7234e-05,4.64e-06,0.0,0 STARLINK-3715,1 52127U 22029AR  24116.55231711  .00000464  00000-0  47234-4 0  9999,2 52127  53.2177 255.8508 0001414 111.4715 248.6428 15.08836270117796,6917.892,95.438,540.735,538.779,0.0
52127.0,STARLINK-3715,PAYLOAD,2024-04-25 14:50:43,15.08836943,0.0001572,53.2182,255.5551,115.2191,244.8964,5.943e-05,6.58e-06,0.0,0 STARLINK-3715,1 52127U 22029AR  24116.61855666  .00000658  00000-0  59430-4 0  9993,2 52127  53.2182 255.5551 0001572 115.2191 244.8964 15.08836943117804,6917.89,95.438,540.842,538.667,0.0
52127.0,STARLINK-3715,PAYLOAD,2024-04-25 16:26:06,15.08838534,0.0001308,53.2175,255.2511,96.5895,263.5247,7.6135e-05,9.24e-06,0.0,0 STARLINK-3715,1 52127U 22029AR  24116.68479490  .00000924  00000-0  76135-4 0  9994,2 52127  53.2175 255.2511 0001308  96.5895 263.5247 15.08838534117819,6917.885,95.438,540.655,538.845,0.0
52127.0,STARLINK-3715,PAYLOAD,2024-04-26 14:41:30,15.08840576,0.0001666,53.2182,251.0859,63.3303,296.786,3.3768e-05,2.49e-06,0.0,0 STARLINK-3715,1 52127U 22029AR  24117.61216247  .00000249  00000-0  33768-4 0  9992,2 52127  53.2182 251.0859 0001666  63.3303 296.7860 15.08840576117952,6917.879,95.438,540.896,538.591,0.0
52127.0,STARLINK-3715,PAYLOAD,2024-04-26 16:16:52,15.08853582,0.0001321,53.2182,250.7951,88.2814,271.8329,0.00018126,2.599e-05,0.0,0 STARLINK-3715,1 52127U 22029AR  24117.67839103  .00002599  00000-0  18126-3 0  9990,2 52127  53.2182 250.7951 0001321  88.2814 271.8329 15.08853582117968,6917.839,95.437,540.618,538.79,0.0
52127.0,STARLINK-3715,PAYLOAD,2024-04-27 01:49:11,15.08846269,0.0001225,53.2179,248.9945,77.0728,283.0401,0.00016641,2.362e-05,0.0,0 STARLINK-3715,1 52127U 22029AR  24118.07583133  .00002362  00000-0  16641-3 0  9992,2 52127  53.2179 248.9945 0001225  77.0728 283.0401 15.08846269118027,6917.861,95.437,540.574,538.879,0.0
52127.0,STARLINK-3715,PAYLOAD,2024-04-27 12:56:53,15.08853513,0.0001472,53.2185,246.9247,91.6084,268.5077,0.00019179,2.767e-05,0.0,0 STARLINK-3715,1 52127U 22029AR  24118.53950445  .00002767  00000-0  19179-3 0  9995,2 52127  53.2185 246.9247 0001472  91.6084 268.5077 15.08853513118092,6917.839,95.437,540.722,538.686,0.0
52127.0,STARLINK-3715,PAYLOAD,2024-04-27 14:32:16,15.08854588,0.000149,53.2186,246.6273,91.0954,269.0209,0.00019559,2.827e-05,0.0,0 STARLINK-3715,1 52127U 22029AR  24118.60574307  .00002827  00000-0  19559-3 0  9991,2 52127  53.2186 246.6273 0001490  91.0954 269.0209 15.08854588118107,6917.836,95.437,540.732,538.67,0.0
52127.0,STARLINK-3715,PAYLOAD,2024-04-27 16:07:38,15.08866199,0.0001322,53.2185,246.3252,82.4557,277.6586,0.00029244,4.373e-05,0.0,0 STARLINK-3715,1 52127U 22029AR  24118.67197201  .00004373  00000-0  29244-3 0  9992,2 52127  53.2185 246.3252 0001322  82.4557 277.6586 15.08866199118112,6917.8,95.436,540.58,538.751,0.0
52127.0,STARLINK-3715,PAYLOAD,2024-04-28 12:47:42,15.08826917,0.0001024,53.2183,242.456,79.7128,280.398,-0.00026038,-4.428e-05,0.0,0 STARLINK-3715,1 52127U 22029AR  24119.53313322 -.00004428  00000-0 -26038-3 0  9993,2 52127  53.2183 242.4560 0001024  79.7128 280.3980 15.08826917118248,6917.92,95.438,540.494,539.077,0.0
